{"fetched_at":"2026-06-03T03:55:42Z","count":10907,"tles":[{"name":"CENTAURI-6","line1":"1 59451U 24066K   26152.47642000  .00005851  00000+0  41518-3 0  9991","line2":"2 59451  45.6069 336.5570 0001272 307.5363  52.5405 15.05676529117752","category":"Other"},{"name":"SITRO-AIS 42","line1":"1 61756U 24199X   26153.59846946  .00050137  00000+0  47671-3 0  9991","line2":"2 61756  97.2917  32.4091 0002386 354.4687   5.6547 15.66711547135512","category":"Other"},{"name":"COSMOS 2583","line1":"1 62904U 25026C   26153.69777485  .00002971  00000+0  26959-3 0  9998","line2":"2 62904  81.9959  89.2816 0011808 102.6148 257.6393 14.94963455 72035","category":"Other"},{"name":"CONNECTA IOT-11","line1":"1 64557U 25135AF  26153.56175663  .00003847  00000+0  17998-3 0  9997","line2":"2 64557  97.4710 269.0013 0002738  73.2388 286.9147 15.20349620 52645","category":"Other"},{"name":"2024-092D","line1":"1 59776U 24092D   26153.31184064  .00021847  00000+0  61652-3 0  9999","line2":"2 59776  97.6567 285.7812 0007189 195.3239 164.7788 15.36385434113464","category":"Other"},{"name":"SEDNA-1","line1":"1 60580U 24149DS  26153.59935130  .00007699  00000+0  52004-3 0  9995","line2":"2 60580  97.6634 234.1380 0009743  46.8796 313.3245 15.06829104 98194","category":"Other"},{"name":"BRO-20","line1":"1 66674U 25276J   26153.19923323  .00004136  00000+0  20623-3 0  9999","line2":"2 66674  97.4171 226.5950 0007734  65.1383 295.0654 15.18060418 28124","category":"Other"},{"name":"EUTELSAT 1-F4 (ECS 4)","line1":"1 18351U 87078B   26105.00492252 -.00000189  00000+0  00000+0 0  9993","line2":"2 18351  13.8738 342.5684 0012053  33.5901 140.2388  0.98689662126137","category":"Other"},{"name":"CSC-2","line1":"1 58021U 23155F   26153.60154324  .00010699  00000+0  47793-3 0  9991","line2":"2 58021  97.5429 230.2326 0003344 288.7035  71.3838 15.21526565145962","category":"Other"},{"name":"SHIJIAN-6 03A (SJ-6 03A)","line1":"1 33408U 08053A   26153.60422685  .00008154  00000+0  41513-3 0  9998","line2":"2 33408  97.8412 186.4188 0012904  66.7554 293.5035 15.17016510960757","category":"Other"},{"name":"DEIMOS-2","line1":"1 40013U 14033D   26153.64649403  .00001362  00000+0  13400-3 0  9994","line2":"2 40013  97.5844  28.6452 0001913  59.1577 300.9832 14.93680078635557","category":"Other"},{"name":"DONGPO 02","line1":"1 53452U 22098J   26153.61166962  .00096794  00000+0  74424-3 0  9992","line2":"2 53452  97.5512 283.5717 0000840   1.4487 358.6778 15.71733543212502","category":"Other"},{"name":"AIST-2T 2","line1":"1 67254U 25313G   26153.59645169  .00033948  00000+0  40714-3 0  9995","line2":"2 67254  97.0847 231.1391 0007258 245.7873 114.2627 15.60821114 24333","category":"Other"},{"name":"SITRO-AIS 22","line1":"1 61740U 24199F   26153.58761643  .00002526  00000+0  23048-3 0  9994","line2":"2 61740  97.3256 352.5535 0014172 108.9857 251.2902 14.95835358129737","category":"Other"},{"name":"OPS 7613 (P/L 1)","line1":"1 04256U 69082B   26104.96902808  .00000067  00000+0  82985-4 0  9995","line2":"2 04256  70.0072 100.8213 0018273 155.8900 204.3067 13.99179571881628","category":"Other"},{"name":"2023-117B","line1":"1 57581U 23117B   23362.48747551  .00016134  00000+0  85794-3 0  9997","line2":"2 57581  97.5070  72.3203 0011725 162.9768 197.1859 15.15291370 21218","category":"Other"},{"name":"EINSTEIN PROBE","line1":"1 58753U 24007A   26153.61373758  .00003523  00000+0  25218-3 0  9991","line2":"2 58753  28.9999 308.2494 0009823  61.3941 298.7645 15.01817760131374","category":"Other"},{"name":"CARCARA 2 (ICEYE-X19)","line1":"1 52758U 22057AC  23362.47839577  .00023367  00000+0  97146-3 0  9999","line2":"2 52758  97.5536 118.8008 0016139  18.7620 341.4208 15.23675220 88173","category":"Other"},{"name":"2024-016A","line1":"1 58820U 24016A   26153.58237738  .00032417  00000+0  50093-3 0  9992","line2":"2 58820  97.4482 248.3026 0007556 108.4114 251.7961 15.54012208131808","category":"Other"},{"name":"AAC-AIS-SAT2","line1":"1 56996U 23084BY  26153.61235659  .00004099  00000+0  46846-3 0  9998","line2":"2 56996  98.1471 293.1739 0057878 144.4283 216.0811 14.85407112151214","category":"Other"},{"name":"DROID.002","line1":"1 63223U 25052P   26153.22812515  .00006232  00000+0  26731-3 0  9997","line2":"2 63223  97.3952  46.3043 0004244 162.0524 198.0864 15.23076971 67591","category":"Other"},{"name":"CSTP 1.1 (STC 1.1)","line1":"1 57202U 23091AN  26153.58400617  .00005981  00000+0  28895-3 0  9996","line2":"2 57202  97.5119 212.4758 0010394 152.3178 207.8612 15.18970855161747","category":"Other"},{"name":"DEIMOS-1","line1":"1 35681U 09041A   26153.60349310  .00000606  00000+0  96682-4 0  9996","line2":"2 35681  97.7385 311.4644 0000660 141.2957 218.8300 14.75221033904731","category":"Other"},{"name":"GLOBAL-19","line1":"1 55982U 23041B   26152.45013178  .00016099  00000+0  41563-3 0  9990","line2":"2 55982  42.0026 293.6753 0007280 241.6464 118.3642 15.38814308179502","category":"Other"},{"name":"COSMOS 2488 (RODNIK-S 7)","line1":"1 39483U 13076A   26153.54855981  .00000077  00000+0  48000-3 0  9994","line2":"2 39483  82.4830 177.8156 0020640 125.6184 234.6823 12.42905635564075","category":"Other"},{"name":"SPACEMOBILE-004","line1":"1 61049U 24163E   26152.98557334  .00021443  00000+0  96907-3 0  9993","line2":"2 61049  52.9734  18.8459 0009429 119.9538 240.2394 15.20878335 95456","category":"Other"},{"name":"ELEVATION-1","line1":"1 62677U 25009BW  26153.19392574  .00029542  00000+0  71302-3 0  9998","line2":"2 62677  97.3840 238.2291 0003134  29.2277 330.9144 15.41151344134515","category":"Other"},{"name":"SPIRIT","line1":"1 58468U 23185G   26153.23068306  .00039755  00000+0  21865-3 0  9998","line2":"2 58468  97.3275 237.2687 0005552 214.2595 145.8315 15.79624748140214","category":"Other"},{"name":"SITRO-AIS 18","line1":"1 61790U 24199BH  26153.61084806  .00002959  00000+0  25623-3 0  9993","line2":"2 61790  97.3227 354.0855 0007013 116.4769 243.7174 14.97825317129850","category":"Other"},{"name":"SATORO-T3","line1":"1 64589U 25135BP  26153.56498581  .00001841  00000+0  17673-3 0  9991","line2":"2 64589  97.7705 268.2421 0005504  36.2406 323.9186 14.94285554 51723","category":"Other"},{"name":"ICEYE-X33","line1":"1 60548U 24149CJ  26153.63543758  .00004375  00000+0  34829-3 0  9998","line2":"2 60548  97.7196 232.8501 0002772 179.6366 180.4860 15.00904717 98021","category":"Other"},{"name":"SL-3 R/B","line1":"1 10114U 77057B   26153.54085256  .00012175  00000+0  23825-3 0  9993","line2":"2 10114  97.5830 329.3765 0006300 348.0385  12.0713 15.47555125681443","category":"Other"},{"name":"2025-155H","line1":"1 64883U 25155H   26153.57143330  .00009322  00000+0  33118-3 0  9994","line2":"2 64883  97.4570 122.0314 0005799 211.0151 149.0747 15.29227207 78528","category":"Other"},{"name":"CSTP 1.2 (STC 1.2)","line1":"1 57186U 23091W   26153.57909717  .00010247  00000+0  36843-3 0  9994","line2":"2 57186  97.5153 219.6986 0019482 141.9047 218.3575 15.28642578162222","category":"Other"},{"name":"PARS 1","line1":"1 59065U 24039Q   26153.61782603  .00011868  00000+0  24967-3 0  9997","line2":"2 59065  97.4819 134.0830 0010275 156.2931 203.8793 15.45407180126394","category":"Other"},{"name":"LIZZIESAT-2 (LS-2)","line1":"1 62383U 24247G   26152.05485088  .00008991  00000+0  31753-3 0  9993","line2":"2 62383  44.9926  19.8837 0001913 147.9799 212.1201 15.29596377 80500","category":"Other"},{"name":"ARIRANG-5 (KOMPSAT-5)","line1":"1 39227U 13042A   26153.06866823  .00002359  00000+0  17263-3 0  9999","line2":"2 39227  97.6198 339.9810 0003731 165.8676 194.2655 15.04542625701588","category":"Other"},{"name":"BIRKELAND","line1":"1 55015U 23001G   26153.59104992  .00009956  00000+0  25307-3 0  9996","line2":"2 55015  97.3349 221.5260 0007855 147.4223 212.7509 15.39792152190100","category":"Other"},{"name":"ALSAT-2A","line1":"1 36798U 10035D   26153.56146001  .00000876  00000+0  13902-3 0  9990","line2":"2 36798  97.7619 156.7378 0001152  74.8282 285.3054 14.74458128851602","category":"Other"},{"name":"SITRO-AIS 46","line1":"1 61774U 24199AR  26153.56628904  .00054607  00000+0  70111-3 0  9991","line2":"2 61774  97.2902  29.6996 0005414   3.5733 356.5561 15.58941002132194","category":"Other"},{"name":"LPNTSAT-002 (IOD-2)","line1":"1 68409U 26065B   26153.23939002  .00007516  00000+0  36086-3 0  9995","line2":"2 68409  97.4025  34.0798 0015510  56.1738 304.0970 15.19031827  9974","category":"Other"},{"name":"TRANSPORTER-11 OBJECT A","line1":"1 60468U 24149A   26153.46484332  .00009351  00000+0  29899-3 0  9992","line2":"2 60468  97.3733 233.4430 0001660 269.1752  90.9300 15.32652091 99803","category":"Other"},{"name":"LEMU NGE","line1":"1 60532U 24149BS  26153.59343307  .00002349  00000+0  22064-3 0  9991","line2":"2 60532  97.6841 228.8484 0002449  83.4335 276.7165 14.94887829 97778","category":"Other"},{"name":"AFR-1","line1":"1 56964U 23084AJ  26153.63347253  .00004995  00000+0  18308-3 0  9996","line2":"2 56964  97.6259 289.9771 0011258  37.3513 322.8507 15.28423499165008","category":"Other"},{"name":"ICEYE-X50","line1":"1 63255U 25052AX  26153.56934301  .00002259  00000+0  21056-3 0  9997","line2":"2 63255  97.6905  45.7456 0000410 210.0537 150.0660 14.95227033 66469","category":"Other"},{"name":"HINODE (SOLAR-B)","line1":"1 29479U 06041A   26152.65120846  .00000952  00000+0  17197-3 0  9993","line2":"2 29479  98.0550 169.0328 0016889 342.1787  17.8824 14.68598817 52591","category":"Other"},{"name":"ICEYE-X61","line1":"1 66754U 25276CS  26153.20054040  .00003824  00000+0  18967-3 0  9992","line2":"2 66754  97.4205 226.9726 0004185  52.8810 307.2806 15.18309730 28141","category":"Other"},{"name":"GOSAT (IBUKI)","line1":"1 33492U 09002A   26153.27465007  .00001150  00000+0  21125-3 0  9990","line2":"2 33492  98.0878 264.5438 0001631  86.4512 273.6879 14.67538324929276","category":"Other"}]}